STARLINK-30447          
1 57874U 23144L   26068.55986978 -.00000085  00000+0  64981-5 0  9990
2 57874  42.9968 260.1413 0001542 274.2299  85.8376 15.26742466137916
FLOCK 4G-25             
1 62646U 25009AP  26068.74572546  .00010373  00000+0  38902-3 0  9990
2 62646  97.4049 151.4141 0000828 316.3151  43.8023 15.27424196 63734
